QIANFAN-81              
1 63167U 25046J   25212.87713257  .00000145  00000+0  20573-3 0  9991
2 63167  88.9858 333.6638 0016215 143.2712 216.9554 13.50959792 29416
QIANFAN-82              
1 63168U 25046K   25213.13209957  .00000148  00000+0  21047-3 0  9999
2 63168  88.9859 333.6811 0014209 149.1762 211.0226 13.50961440 29439
QIANFAN-83              
1 63169U 25046L   25213.13417118  .00000190  00000+0  23069-3 0  9993
2 63169  88.9858 333.7188 0015648 142.6967 217.5280 13.61930599 29423
QIANFAN-84              
1 63170U 25046M   25213.16097462  .00000160  00000+0  22953-3 0  9992
2 63170  88.9858 333.8113 0017244 146.7568 213.4670 13.50963570 29364
QIANFAN-85              
1 63171U 25046N   25212.86064779  .00000151  00000+0  21508-3 0  9999
2 63171  88.9858 333.7143 0014551 149.0313 211.1699 13.50957759 29390
QIANFAN-86              
1 63172U 25046P   25212.86887683  .00000155  00000+0  22187-3 0  9995
2 63172  88.9860 333.5725 0012347 151.8977 208.2843 13.50958015 29479
QIANFAN-87              
1 63173U 25046Q   25212.91402634  .00000158  00000+0  22666-3 0  9996
2 63173  88.9856 333.6846 0013172 147.5650 212.6313 13.50955852 29418
QIANFAN-88              
1 63174U 25046R   25213.52320980  .00000154  00000+0  22037-3 0  9996
2 63174  88.9859 333.5735 0013406 153.4279 206.7562 13.50958393 29526
